GLOBALSTAR M024         
1 25883U 99043A   25258.04376279  .00000004  00000+0  24445-2 0  9995
2 25883  52.0001 177.8740 0000827 267.0445 105.3400 11.10166154124843
GLOBALSTAR M027         
1 25884U 99043B   25258.73697772 -.00000063  00000+0  13818-4 0  9996
2 25884  52.0184 256.8599 0021316 137.2278 223.0178 11.04372595151249
GLOBALSTAR M054         
1 25885U 99043C   25258.59819355 -.00000043  00000+0  71325-3 0  9998
2 25885  52.0182   9.2934 0004826 334.5377 125.9856 11.39220712129351
GLOBALSTAR M053         
1 25886U 99043D   25258.47541206 -.00000050  00000+0  55616-3 0  9996
2 25886  52.0011 321.6962 0003335 230.7628 142.8843 11.27666680129635
GLOBALSTAR M058         
1 25907U 99049A   25258.61338188 -.00000065  00000+0  26563-3 0  9990
2 25907  51.9920 227.7123 0002418  81.2148 278.8961 11.93202919552330
GLOBALSTAR M050         
1 25908U 99049B   25258.63644521 -.00000146  00000+0 -65185-3 0  9998
2 25908  51.9968 228.5691 0008779 212.0629 319.2399 12.07456946159117
GLOBALSTAR M033         
1 25909U 99049C   25258.85982985 -.00000089  00000+0  24614-4 0  9990
2 25909  51.9898  93.5232 0014828  90.0670 270.1876 12.20297987546818
GLOBALSTAR M055         
1 25910U 99049D   25258.82541679 -.00000083  00000+0  98479-4 0  9994
2 25910  52.0004  99.9557 0006630 327.0682  32.9756 12.29432169179432
